#dP2021  4 28  0  0  0.00000000     288   u+U IGb14 FIT  GFZ                    
## 2155 259200.00000000   300.00000000 59332 0.0000000000000                    
+  124   C01C02C03C04C05C06C07C08C09C10C11C12C13C14C16C19C20                    
+        C21C22C23C24C25C26C27C28C29C30C32C33C34C35C36C37C38                    
+        C39C40C41C42C43C44C45C46C59C60E01E02E03E04E05E07E08                    
+        E09E11E12E13E14E15E18E19E21E24E25E26E27E30E31E33E36                    
+        G01G02G03G04G05G06G07G08G09G10G12G13G14G15G16G17G18                    
+        G19G20G21G22G23G24G25G26G27G28G29G30G31G32J01J02J03                    
+        J07R01R02R03R04R05R07R08R09R11R12R13R14R15R16R17R18                    
+        R19R20R21R22R24 00 00 00 00 00 00 00 00 00 00 00 00                    
++        10 10 10 10  0  8 10 10  7 10  8  8  8  7  9  6  8                    
++         6  9  6  7  8  6  6  6  7  6  7  6  6  7 10  7 10                    
++        10 10  8  6  8  7 10  8 10 10  7  7  5  6  5  6  6                    
++         5  5  5  5  5  7  7  6  6  6  5  5  6  5  5  7  6                    
++         5  6  7  7  6  6  7  6  6  6  6  5  9  7  9  7  9                    
++         7  6  6  6  6  5  6  8  5  8  7  6  5  5 10 10 10                    
++        10  9  6  6  7 10  7  8  7  7  7 10  7  5 10  8  8                    
++         8 10  6 10  6  0  0  0  0  0  0  0  0  0  0  0  0                    
%c M  cc GPS ccc cccc cccc cccc cccc ccccc ccccc ccccc ccccc                    
%c cc cc ccc ccc cccc cccc cccc cccc ccccc ccccc ccccc ccccc                    
%f  1.2500000  1.025000000  0.00000000000  0.000000000000000                    
%f  0.0000000  0.000000000  0.00000000000  0.000000000000000                    
%i    0    0    0    0      0      0      0      0         0                    
%i    0    0    0    0      0      0      0      0         0                    
/* PCV:IGS14_2148 OL/AL:FES2004  NONE     YN CLK:CoN ORB:CoN                    
/*     GeoForschungsZentrum Potsdam                                             
/*                                                                              
/*                                                                              
*  2021  4 28  4 55  0.00000000                                                 
PC01 -34315.061188  24516.179331    235.005172   -518.961139                    
PC02   4432.878869  41872.901103  -1267.339637    723.376826                    
PC03 -14737.929842  39465.471906   -487.642890   -359.386357                    
PC04 -39597.130622  14481.641955    414.192794   -114.854862                    
PC05  21899.584768  35982.936728  -1021.500589   -165.334341                    
PC06  -7936.615063  32018.861266 -25504.560418    324.797247                    
PC07 -19247.232531  22814.546704  29864.913889   -165.634867                    
PC08 -23475.829382  34823.053838  -5439.191008   -890.696725                    
PC09   2576.246453  39596.699497 -13288.375389    563.825249                    
PC10  -2272.507287  26527.253984  32898.182594    -50.274408                    
PC11 -14266.089591   6037.515129  23270.406936    309.360085                    
PC12 -15687.687144 -14234.063133  18189.613799    907.821611                    
PC13 -13106.472050  36033.917798 -17703.763729    239.185000                    
PC14 -24702.589888   2277.140019 -12690.589307    583.976132                    
PC16  -4807.016412  34306.687902 -23755.145490   -807.060810                    
PC19  18027.837764  -8915.634495  19386.364419    814.756880                    
PC20  27133.232843   3555.909117   5578.719428   -942.086733                    
PC21 -20358.287139 -14580.925624  12313.695989   -946.584993                    
PC22  -1762.865506 -16600.395336  22366.385986   -962.074393                    
PC23  -7534.815773  22200.434887  15139.069210   -895.499754                    
PC24 -21636.934590   3640.280165 -17266.433328   -829.243365                    
PC25 -20102.723067  19350.804233   -903.122881   -925.589521                    
PC26 -10903.077511 -12001.216148 -22719.640033    914.819932                    
PC27  12917.671914  22218.209089 -10868.697731    522.683690                    
PC28   1583.960628  27038.884607   6721.765434    -80.979460                    
PC29  10038.323259 -16356.872533 -20270.886937    384.837531                    
PC30  16851.540889   4348.192792 -21816.041506    463.672236                    
PC32  20516.776502  14405.723126 -12251.387517   -941.313593                    
PC33 -18022.109364   8978.533251 -19300.653853   -942.471333                    
PC34 -16804.904013  -3618.952396  21976.720086   -685.890223                    
PC35  -2270.849395 -26934.894925  -7023.423581   -306.457663                    
PC36  20701.617519 -18672.467462   1270.934354   -728.879144                    
PC37   9819.049051  12983.613845  22682.195782   -905.630765                    
PC38 -19615.477099  36178.507528  -9436.057260    145.156090                    
PC39   -301.288405  35969.014289 -21849.117627     30.695277                    
PC40  -7702.703091  21283.069496  35580.343028    155.539349                    
PC41   1515.708230  16561.391543 -22354.267391   -946.278042                    
PC42 -27169.361294  -4080.122547  -4788.067903   -919.619971                    
PC43 -10500.736295  15839.887766  20415.975988   -705.434868                    
PC44 -13613.275279 -21950.579485  10602.219181    160.109243                    
PC45   7441.380547 -22129.207766 -15270.090483    425.562370                    
PC46  21850.027742  -4605.263664  16720.209081    296.081828                    
PC59 -32317.244375  27095.432345   -244.465169      0.265039                    
PC60   7337.450089  41500.248463   1057.967525      0.614418                    
PE01  28718.557265  -6386.219374   3231.119136  -1096.242845                    
PE02 -28726.346103   6465.653720  -3122.696086    215.279983                    
PE03 -22280.866353  -2030.360478 -19369.147144   -424.952059                    
PE04   8653.634181 -15123.194273  23938.783253   -759.369031                    
PE05 -23042.992634 -18271.172346  -3349.355884   -285.312931                    
PE07  10380.668138  23673.017242 -14421.036858   -531.044071                    
PE08  -8168.157212  15297.828518 -23982.339894   6010.796971                    
PE09 -10670.094116 -23566.320915  14380.036734   5686.198475                    
PE11   -127.271747 -28029.693690   9541.288629   6045.360435                    
PE12  12234.256401 -25083.182835  -9903.446806   5237.860402                    
PE13    -85.914878  28134.581059  -9175.705365    415.642746                    
PE14   4757.901488 -22553.167439 -19465.306641  -1412.133230                    
PE15 -12104.665271  25124.616380   9908.455040    817.180476                    
PE18   9256.554870  25064.481177   6152.785795  -1545.223779                    
PE19  23056.740135   4218.816198  18086.069469    263.246691                    
PE21  21585.472868   6847.003229  19055.666000   -661.808202                    
PE24   -770.244916 -16925.060647 -24284.448156   -870.717152                    
PE25 -21444.369704  -6974.652087 -19176.213904   -532.197917                    
PE26  12415.806058  13865.822106 -23013.050266   1873.854958                    
PE27   1677.529866  16674.969406  24398.872255    -20.620867                    
PE30 -19920.335743  16295.423414  14623.634560   2989.569650                    
PE31  19067.600624 -16627.610313 -15359.677311   -480.596635                    
PE33  16971.215176  -7354.688238 -23109.481590   -468.000692                    
PE36 -11958.091993 -14584.645968  22820.500049   -199.656936                    
PG01 -14068.326544  21526.786159   5602.748986    704.454231                    
PG02  15810.785323  -1419.089513 -20651.840761   -599.547981                    
PG03 -17077.926267  12692.813070 -15904.997598   -148.989623                    
PG04  -7788.452129  14535.086286 -20802.464086   -193.933592                    
PG05  26204.036366  -4648.472607   1485.120998    -40.347285                    
PG06  10133.650822  12021.062912 -21337.281719     10.780989                    
PG07  -5362.986235  24683.498819   7684.568944    135.160052                    
PG08 -14215.454092   5904.718624  21663.474414    -19.131777                    
PG09   2482.698724  21574.766701 -15336.269425   -341.959065                    
PG10 -13352.626736 -12206.758452  19652.404885   -110.930433                    
PG12  19865.102987 -10361.271517 -14404.743375    -33.703592                    
PG13  17448.838122   4147.517016  19501.953635    125.280764                    
PG14  12015.435352  13203.888229  19663.225257     92.230962                    
PG15  13888.668751  -7931.687967  20873.289314   -153.157655                    
PG16 -26736.333235  -1081.316875  -1971.615920   -316.563039                    
PG17  13245.551599  22989.603553   1592.501398    433.569501                    
PG18   3179.713130 -23991.045294  10863.185333    351.354028                    
PG19  16958.067567  19029.992455  -7947.626494     -7.157962                    
PG20  16005.644152 -15069.210336  14638.634450    522.736704                    
PG21 -16299.121048  15896.809917  13981.249111    114.229346                    
PG22 -23438.865225   9968.289494  -6980.064851   -627.582770                    
PG23   -753.194702 -15156.312007  21776.877486    110.793089                    
PG24  15232.454162 -18579.691475  10634.459030     41.289027                    
PG25   6857.967587 -15300.636644 -20800.080807    126.939373                    
PG26 -23806.509972  -4753.711462 -11142.969750     78.088359                    
PG27 -19073.135626  -6428.944208  17345.537765   -120.541545                    
PG28  15457.834832  12307.916999  18211.341288    579.965667                    
PG29  -1231.982512 -21604.775653 -15417.862813   -337.651320                    
PG30   4994.487104  19264.524534  17534.599867   -418.811637                    
PG31 -12540.949543  -9097.193382 -21621.937350   -114.143130                    
PG32 -16028.202782 -21285.671879   -574.761105     21.916696                    
PJ01 -27462.096636  14959.472530 -23683.146198   -371.217353                    
PJ02 -30249.671122  27841.513792  14412.639385      6.607706                    
PJ03 -26262.504047  24776.921352  26814.853539     -4.255081                    
PJ07 -25395.414154  33647.170230    -14.733083     -0.027674                    
PR01 -23392.401737  -9946.312408  -2020.219948     78.568023                    
PR02 -16087.016373   2282.459100 -19637.655264    476.516892                    
PR03    409.424604  12111.051521 -22390.551710     34.961404                    
PR04  16519.749272  14826.877222 -12530.695110     84.349957                    
PR05  23294.076335   9416.255701   4358.013270     70.745223                    
PR07  -1127.886348 -12422.770501  22298.894992    -42.525295                    
PR08 -16503.170149 -14908.427269  12568.851130    -58.753882                    
PR09  21324.806345 -14038.510510    895.049110     -9.873571                    
PR11  -4699.426502  -9933.755980 -23011.302655     -1.028462                    
PR12 -18803.143882   2880.580612 -16983.048962    224.431416                    
PR13 -21406.778657  13786.241198  -1556.865775    -54.027800                    
PR14 -11321.235874  16687.480827  15620.492836     63.636060                    
PR15   5072.176367   9823.343509  23004.081153    104.119119                    
PR16  19192.296139  -3865.868231  16250.933472    -14.377633                    
PR17  -2031.588268  24294.352195   7565.598932    419.475835                    
PR18   5428.043270  23053.046799  -9386.973274     74.629176                    
PR19   9644.914715  10702.017742 -21052.323499   -141.541312                    
PR20   9068.669999 -11117.139552 -21099.720274    -48.124968                    
PR21   1545.050567 -24633.249390  -6404.478880   -204.946661                    
PR22  -5694.981801 -22651.571789  10358.552223   -110.002270                    
PR24  -9162.735769  11941.538693  20609.310849     40.540332                    
EOF                                     
